TIANWANG 1C (TW-1C)     
1 40926U 15051B   17196.79967331  .00005909  00000-0  13549-3 0  9990
2 40926  97.2272 236.1406 0013377  70.1846  18.5937 15.43032266101334
TIANWANG 1B (TW-1B)     
1 40927U 15051C   17196.76120022  .00005755  00000-0  13700-3 0  9994
2 40927  97.2365 236.1083 0013423  77.9754  14.0129 15.41919980101276
TIANWANG 1A (TW-1A)     
1 40928U 15051D   17196.88530297  .00002890  00000-0  83733-4 0  9998
2 40928  97.2246 232.1854 0014566  93.8960  30.2996 15.36266118101108
LAPAN-A2 (IO-86)        
1 40931U 15052B   17196.68166405  .00000711  00000-0  99990-5 0  9990
2 40931   5.9983  29.5602 0013599 289.7176  70.1584 14.76533569 97183
LQSAT                   
1 40958U 15057A   17196.84695945  .00000041  00000-0  14212-4 0  9997
2 40958  97.9770 271.6638 0017855 338.9478  21.0985 14.72972289 95334
CHUBUSAT-2              
1 41338U 16012B   17196.63843696  .00000358  00000-0  21381-4 0  9993
2 41338  31.0037 291.5652 0014045 340.8960  19.1147 14.99756902 77266
CHUBUSAT-3              
1 41339U 16012C   17196.62931519  .00000307  00000-0  17317-4 0  9993
2 41339  31.0120 290.7216 0013795 346.8911  13.1360 14.99961005 77241
OUFTI-1                 
1 41458U 16025C   17196.93447250  .00001347  00000-0  75737-4 0  9992
2 41458  98.1786 236.1558 0175296 193.3455 166.3104 15.03223945 66909
E-ST@R-II               
1 41459U 16025D   17196.89178785  .00000490  00000-0  30876-4 0  9995
2 41459  98.1854 236.0639 0174740 193.3348 166.3228 15.03076261 66880
AAUSAT 4                
1 41460U 16025E   17196.87222066  .00000986  00000-0  57229-4 0  9998
2 41460  98.1739 236.1577 0167089 191.7938 167.9358 15.03971816 66905
NUSAT 1 (LO-87)         
1 41557U 16033B   17196.84540572  .00001417  00000-0  56018-4 0  9991
2 41557  97.4625 276.3629 0012583 265.9505  94.0295 15.27118209 62804
BEESAT-4                
1 41619U 16040W   17196.74740889  .00001642  00000-0  77485-4 0  9991
2 41619  97.4605 258.8576 0011241 336.1082  23.9630 15.20829291 46931
PRATHAM                 
1 41783U 16059A   17196.82090400  .00000028  00000-0  14888-4 0  9994
2 41783  98.1650 257.8959 0034929  72.0184 288.4820 14.62843954 42787
ALSAT 1N                
1 41789U 16059G   17196.78574981  .00000082  00000-0  24730-4 0  9993
2 41789  98.1661 258.4181 0029705  66.2819 294.1484 14.64056823 42799
NAYIF-1 (EO-88)         
1 42017U 17008BX  17196.88317788  .00001830  00000-0  80700-4 0  9995
2 42017  97.4933 258.2828 0008177 115.4414 244.7669 15.23059117 22858
LILACSAT-1              
1 42725U 98067ME  17196.42325131  .00007649  00000-0  11645-3 0  9991
2 42725  51.6393 257.1844 0007496  52.5244 307.6428 15.55565238  7875
MAX VALIER SAT          
1 42778U 17036P   17196.91199835  .00001224  00000-0  59306-4 0  9990
2 42778  97.4499 256.4095 0013560 159.7418 200.4358 15.20366295  3399
